[{"OBJECT_NAME":"BIOMASS","OBJECT_ID":"2025-090A","EPOCH":"2026-03-06T01:48:41.736384","MEAN_MOTION":14.6753287,"ECCENTRICITY":0.00010944,"INCLINATION":98.0746,"RA_OF_ASC_NODE":253.8757,"ARG_OF_PERICENTER":93.0136,"MEAN_ANOMALY":267.1194,"EPHEMERIS_TYPE":0,"CLASSIFICATION_TYPE":"U","NORAD_CAT_ID":63772,"ELEMENT_SET_NO":999,"REV_AT_EPOCH":4556,"BSTAR":7.3334876e-5,"MEAN_MOTION_DOT":3.68e-6,"MEAN_MOTION_DDOT":0},{"OBJECT_NAME":"GOSAT-GW (IBUKI GW)","OBJECT_ID":"2025-141A","EPOCH":"2026-03-06T00:45:39.164256","MEAN_MOTION":14.67568283,"ECCENTRICITY":0.00014327,"INCLINATION":98.0502,"RA_OF_ASC_NODE":4.0681,"ARG_OF_PERICENTER":83.7124,"MEAN_ANOMALY":276.4243,"EPHEMERIS_TYPE":0,"CLASSIFICATION_TYPE":"U","NORAD_CAT_ID":64694,"ELEMENT_SET_NO":999,"REV_AT_EPOCH":3671,"BSTAR":0.00022341843,"MEAN_MOTION_DOT":1.22e-5,"MEAN_MOTION_DDOT":0},{"OBJECT_NAME":"IONOSFERA-M 3","OBJECT_ID":"2025-155A","EPOCH":"2026-03-06T06:23:37.044672","MEAN_MOTION":14.21465537,"ECCENTRICITY":0.0001984,"INCLINATION":98.5919,"RA_OF_ASC_NODE":29.826,"ARG_OF_PERICENTER":123.4084,"MEAN_ANOMALY":236.7284,"EPHEMERIS_TYPE":0,"CLASSIFICATION_TYPE":"U","NORAD_CAT_ID":64876,"ELEMENT_SET_NO":999,"REV_AT_EPOCH":3178,"BSTAR":7.7415163e-5,"MEAN_MOTION_DOT":1.27e-6,"MEAN_MOTION_DDOT":0},{"OBJECT_NAME":"IONOSFERA-M 4","OBJECT_ID":"2025-155B","EPOCH":"2026-03-06T07:13:59.650176","MEAN_MOTION":14.21467258,"ECCENTRICITY":0.00016077,"INCLINATION":98.5914,"RA_OF_ASC_NODE":29.7785,"ARG_OF_PERICENTER":106.3646,"MEAN_ANOMALY":253.7709,"EPHEMERIS_TYPE":0,"CLASSIFICATION_TYPE":"U","NORAD_CAT_ID":64877,"ELEMENT_SET_NO":999,"REV_AT_EPOCH":3178,"BSTAR":7.5211971e-5,"MEAN_MOTION_DOT":1.22e-6,"MEAN_MOTION_DDOT":0},{"OBJECT_NAME":"MICROCARB","OBJECT_ID":"2025-156A","EPOCH":"2026-03-06T04:26:31.709472","MEAN_MOTION":14.7219541,"ECCENTRICITY":0.00152676,"INCLINATION":97.989,"RA_OF_ASC_NODE":144.1479,"ARG_OF_PERICENTER":239.224,"MEAN_ANOMALY":120.7464,"EPHEMERIS_TYPE":0,"CLASSIFICATION_TYPE":"U","NORAD_CAT_ID":64899,"ELEMENT_SET_NO":999,"REV_AT_EPOCH":3281,"BSTAR":0.00012852022,"MEAN_MOTION_DOT":7.62e-6,"MEAN_MOTION_DDOT":0},{"OBJECT_NAME":"CO3D 3","OBJECT_ID":"2025-156B","EPOCH":"2026-03-06T04:11:57.973056","MEAN_MOTION":15.20198044,"ECCENTRICITY":0.00014922,"INCLINATION":97.433,"RA_OF_ASC_NODE":145.3466,"ARG_OF_PERICENTER":151.5759,"MEAN_ANOMALY":208.5558,"EPHEMERIS_TYPE":0,"CLASSIFICATION_TYPE":"U","NORAD_CAT_ID":64900,"ELEMENT_SET_NO":999,"REV_AT_EPOCH":3388,"BSTAR":0.00032953936,"MEAN_MOTION_DOT":7.072e-5,"MEAN_MOTION_DDOT":0},{"OBJECT_NAME":"CO3D 4","OBJECT_ID":"2025-156C","EPOCH":"2026-03-02T06:59:52.721952","MEAN_MOTION":15.20203154,"ECCENTRICITY":2.545e-5,"INCLINATION":97.4334,"RA_OF_ASC_NODE":141.5187,"ARG_OF_PERICENTER":280.3117,"MEAN_ANOMALY":79.8089,"EPHEMERIS_TYPE":0,"CLASSIFICATION_TYPE":"U","NORAD_CAT_ID":64901,"ELEMENT_SET_NO":999,"REV_AT_EPOCH":3329,"BSTAR":6.0250155e-5,"MEAN_MOTION_DOT":1.237e-5,"MEAN_MOTION_DDOT":0},{"OBJECT_NAME":"CO3D 2","OBJECT_ID":"2025-156D","EPOCH":"2026-03-06T06:33:44.353728","MEAN_MOTION":15.20201231,"ECCENTRICITY":0.00013762,"INCLINATION":97.4328,"RA_OF_ASC_NODE":145.3424,"ARG_OF_PERICENTER":127.3339,"MEAN_ANOMALY":232.8022,"EPHEMERIS_TYPE":0,"CLASSIFICATION_TYPE":"U","NORAD_CAT_ID":64902,"ELEMENT_SET_NO":999,"REV_AT_EPOCH":3389,"BSTAR":0.00023517615,"MEAN_MOTION_DOT":5.027e-5,"MEAN_MOTION_DDOT":0},{"OBJECT_NAME":"CO3D 1","OBJECT_ID":"2025-156E","EPOCH":"2026-03-06T06:33:57.502080","MEAN_MOTION":15.20205629,"ECCENTRICITY":0.00012472,"INCLINATION":97.4328,"RA_OF_ASC_NODE":145.3427,"ARG_OF_PERICENTER":136.5394,"MEAN_ANOMALY":223.5939,"EPHEMERIS_TYPE":0,"CLASSIFICATION_TYPE":"U","NORAD_CAT_ID":64903,"ELEMENT_SET_NO":999,"REV_AT_EPOCH":3389,"BSTAR":0.00024169709,"MEAN_MOTION_DOT":5.169e-5,"MEAN_MOTION_DDOT":0},{"OBJECT_NAME":"SENTINEL-6B","OBJECT_ID":"2025-264A","EPOCH":"2026-03-06T04:21:44.912448","MEAN_MOTION":12.80929396,"ECCENTRICITY":0.00079837,"INCLINATION":66.0448,"RA_OF_ASC_NODE":349.1234,"ARG_OF_PERICENTER":270.6918,"MEAN_ANOMALY":89.3183,"EPHEMERIS_TYPE":0,"CLASSIFICATION_TYPE":"U","NORAD_CAT_ID":66514,"ELEMENT_SET_NO":999,"REV_AT_EPOCH":1397,"BSTAR":8.5429385e-5,"MEAN_MOTION_DOT":-4.1e-7,"MEAN_MOTION_DDOT":0},{"OBJECT_NAME":"CSG-3","OBJECT_ID":"2026-001A","EPOCH":"2026-03-06T07:30:39.267072","MEAN_MOTION":14.82144656,"ECCENTRICITY":0.00014528,"INCLINATION":97.8862,"RA_OF_ASC_NODE":250.3994,"ARG_OF_PERICENTER":88.1926,"MEAN_ANOMALY":271.9454,"EPHEMERIS_TYPE":0,"CLASSIFICATION_TYPE":"U","NORAD_CAT_ID":67304,"ELEMENT_SET_NO":999,"REV_AT_EPOCH":922,"BSTAR":8.6767126e-5,"MEAN_MOTION_DOT":6.38e-6,"MEAN_MOTION_DDOT":0}]
