BIOMASS                 
1 63772U 25090A   26065.07548306  .00000368  00000+0  73335-4 0  9994
2 63772  98.0746 253.8757 0001094  93.0136 267.1194 14.67532870 45567
GOSAT-GW (IBUKI GW)     
1 64694U 25141A   26065.03170329  .00001220  00000+0  22342-3 0  9996
2 64694  98.0502   4.0681 0001432  83.7124 276.4243 14.67568283 36714
IONOSFERA-M 3           
1 64876U 25155A   26065.26640098  .00000127  00000+0  77415-4 0  9990
2 64876  98.5919  29.8260 0001984 123.4084 236.7284 14.21465537 31784
IONOSFERA-M 4           
1 64877U 25155B   26065.30138484  .00000122  00000+0  75212-4 0  9995
2 64877  98.5914  29.7785 0001607 106.3646 253.7709 14.21467258 31780
MICROCARB               
1 64899U 25156A   26065.18508923  .00000762  00000+0  12852-3 0  9995
2 64899  97.9890 144.1479 0015267 239.2240 120.7464 14.72195410 32815
CO3D 3                  
1 64900U 25156B   26065.17497654  .00007072  00000+0  32954-3 0  9991
2 64900  97.4330 145.3466 0001492 151.5759 208.5558 15.20198044 33884
CO3D 4                  
1 64901U 25156C   26061.29158243  .00001237  00000+0  60250-4 0  9997
2 64901  97.4334 141.5187 0000254 280.3117  79.8089 15.20203154 33293
CO3D 2                  
1 64902U 25156D   26065.27343002  .00005027  00000+0  23518-3 0  9995
2 64902  97.4328 145.3424 0001376 127.3339 232.8022 15.20201231 33893
CO3D 1                  
1 64903U 25156E   26065.27358220  .00005169  00000+0  24170-3 0  9996
2 64903  97.4328 145.3427 0001247 136.5394 223.5939 15.20205629 33896
SENTINEL-6B             
1 66514U 25264A   26065.18176982 -.00000041  00000+0  85429-4 0  9999
2 66514  66.0448 349.1234 0007983 270.6918  89.3183 12.80929396 13979
CSG-3                   
1 67304U 26001A   26065.31295448  .00000638  00000+0  86767-4 0  9998
2 67304  97.8862 250.3994 0001452  88.1926 271.9454 14.82144656  9226
